{
  "norad_id": 57081,
  "name": "STARLINK-6184",
  "history": [
    {
      "epoch": "2026-03-28T22:00:01.999584Z",
      "apogee_km": 486.36213587614475,
      "perigee_km": 484.6441667462723,
      "latitude_deg": 19.344901559038874,
      "longitude_deg": -147.11615127430164,
      "height_km": 485.0035159760598,
      "semi_major_axis_km": 6863.640151311209,
      "eccentricity": 0.00012515,
      "inclination_deg": 43.001,
      "raan_deg": 347.2359,
      "arg_perigee_deg": 285.1254,
      "mean_anomaly_deg": 103.8265,
      "mean_motion_rev_day": 15.26760807
    },
    {
      "epoch": "2026-03-28T23:26:40.578720Z",
      "apogee_km": 486.46988443837745,
      "perigee_km": 484.60845546108794,
      "latitude_deg": -2.6821325982319113e-06,
      "longitude_deg": 168.83654746104958,
      "height_km": 484.8173075312377,
      "semi_major_axis_km": 6863.676169949733,
      "eccentricity": 0.0001356,
      "inclination_deg": 43.0025,
      "raan_deg": 346.8952,
      "arg_perigee_deg": 302.4057,
      "mean_anomaly_deg": 57.6663,
      "mean_motion_rev_day": 15.26748789
    },
    {
      "epoch": "2026-03-29T22:59:47.225472Z",
      "apogee_km": 486.42276827488513,
      "perigee_km": 484.60225387856644,
      "latitude_deg": 2.323515485156874e-05,
      "longitude_deg": 169.05614081762766,
      "height_km": 484.9745534269813,
      "semi_major_axis_km": 6863.6495110767255,
      "eccentricity": 0.00013262,
      "inclination_deg": 43.0016,
      "raan_deg": 341.3597,
      "arg_perigee_deg": 290.2349,
      "mean_anomaly_deg": 69.836,
      "mean_motion_rev_day": 15.26757684
    },
    {
      "epoch": "2026-03-30T09:59:14.435520Z",
      "apogee_km": 486.4705976097139,
      "perigee_km": 484.57403126794725,
      "latitude_deg": 4.254900630891698e-05,
      "longitude_deg": 1.1595068331363603,
      "height_km": 484.86625172721887,
      "semi_major_axis_km": 6863.65931443883,
      "eccentricity": 0.00013816,
      "inclination_deg": 43.0019,
      "raan_deg": 338.7778,
      "arg_perigee_deg": 297.1669,
      "mean_anomaly_deg": 62.9042,
      "mean_motion_rev_day": 15.26754413
    },
    {
      "epoch": "2026-03-30T17:50:16.557216Z",
      "apogee_km": 486.46128212977874,
      "perigee_km": 484.5811888659109,
      "latitude_deg": -2.7654521495187223e-05,
      "longitude_deg": -118.76742030060808,
      "height_km": 484.96650482635414,
      "semi_major_axis_km": 6863.6582354978445,
      "eccentricity": 0.00013696,
      "inclination_deg": 43.0019,
      "raan_deg": 336.9322,
      "arg_perigee_deg": 290.6605,
      "mean_anomaly_deg": 69.4099,
      "mean_motion_rev_day": 15.26754773
    },
    {
      "epoch": "2026-03-31T09:32:21.884064Z",
      "apogee_km": 486.34079967104753,
      "perigee_km": 484.7470529599577,
      "latitude_deg": 4.559669709886896e-05,
      "longitude_deg": 1.373826609805795,
      "height_km": 485.2965178910503,
      "semi_major_axis_km": 6863.680926315502,
      "eccentricity": 0.0001161,
      "inclination_deg": 43.0021,
      "raan_deg": 333.2404,
      "arg_perigee_deg": 271.7419,
      "mean_anomaly_deg": 88.33,
      "mean_motion_rev_day": 15.26747202
    },
    {
      "epoch": "2026-04-01T18:30:44.087904Z",
      "apogee_km": 486.4349244933146,
      "perigee_km": 484.7162508613601,
      "latitude_deg": -1.2943231620473843e-06,
      "longitude_deg": -142.32178378757766,
      "height_km": 485.3100198687737,
      "semi_major_axis_km": 6863.712587677337,
      "eccentricity": 0.0001252,
      "inclination_deg": 43.0024,
      "raan_deg": 325.4915,
      "arg_perigee_deg": 272.8349,
      "mean_anomaly_deg": 87.2359,
      "mean_motion_rev_day": 15.26736638
    },
    {
      "epoch": "2026-04-02T00:47:33.921600Z",
      "apogee_km": 486.4623767134399,
      "perigee_km": 484.66875395906754,
      "latitude_deg": -3.2938110970665114e-05,
      "longitude_deg": 121.73661102004648,
      "height_km": 485.2444934000373,
      "semi_major_axis_km": 6863.702565336253,
      "eccentricity": 0.00013066,
      "inclination_deg": 43.0027,
      "raan_deg": 324.0155,
      "arg_perigee_deg": 276.2794,
      "mean_anomaly_deg": 83.7908,
      "mean_motion_rev_day": 15.26739982
    },
    {
      "epoch": "2026-04-03T16:02:45.551328Z",
      "apogee_km": 486.4091314976513,
      "perigee_km": 484.6986997214817,
      "latitude_deg": -1.1526428912704957e-05,
      "longitude_deg": -117.90049561629714,
      "height_km": 485.5213498249371,
      "semi_major_axis_km": 6863.690915609566,
      "eccentricity": 0.0001246,
      "inclination_deg": 43.0023,
      "raan_deg": 314.7889,
      "arg_perigee_deg": 257.1242,
      "mean_anomaly_deg": 102.947,
      "mean_motion_rev_day": 15.26743869
    },
    {
      "epoch": "2026-04-04T15:35:53.240064Z",
      "apogee_km": 486.37792555800297,
      "perigee_km": 484.76907181711067,
      "latitude_deg": -9.123074343474301e-06,
      "longitude_deg": -117.68438194226793,
      "height_km": 485.49200374891467,
      "semi_major_axis_km": 6863.7104986875565,
      "eccentricity": 0.0001172,
      "inclination_deg": 43.0013,
      "raan_deg": 309.2543,
      "arg_perigee_deg": 259.847,
      "mean_anomaly_deg": 100.2249,
      "mean_motion_rev_day": 15.26737335
    },
    {
      "epoch": "2026-04-04T23:26:55.806720Z",
      "apogee_km": 486.3980089983834,
      "perigee_km": 484.7582674518626,
      "latitude_deg": -3.975869507371489e-05,
      "longitude_deg": 122.38757335256456,
      "height_km": 485.4988371643553,
      "semi_major_axis_km": 6863.715138225123,
      "eccentricity": 0.00011945,
      "inclination_deg": 43.0014,
      "raan_deg": 307.4094,
      "arg_perigee_deg": 259.8869,
      "mean_anomaly_deg": 100.1847,
      "mean_motion_rev_day": 15.26735787
    },
    {
      "epoch": "2026-04-05T21:25:50.991456Z",
      "apogee_km": 486.3974331835043,
      "perigee_km": 484.7818492067008,
      "latitude_deg": -3.0462144706064955e-05,
      "longitude_deg": 146.58927675732917,
      "height_km": 485.46409441897083,
      "semi_major_axis_km": 6863.726641195102,
      "eccentricity": 0.00011769,
      "inclination_deg": 43.001,
      "raan_deg": 302.2438,
      "arg_perigee_deg": 263.0488,
      "mean_anomaly_deg": 97.0229,
      "mean_motion_rev_day": 15.26731949
    },
    {
      "epoch": "2026-04-07T14:15:16.084224Z",
      "apogee_km": 486.5450718112452,
      "perigee_km": 484.63146520638566,
      "latitude_deg": -3.560094453245127e-05,
      "longitude_deg": -117.0355535279421,
      "height_km": 485.21545927820796,
      "semi_major_axis_km": 6863.725268508815,
      "eccentricity": 0.0001394,
      "inclination_deg": 43.0023,
      "raan_deg": 292.6501,
      "arg_perigee_deg": 279.0109,
      "mean_anomaly_deg": 81.0584,
      "mean_motion_rev_day": 15.26732407
    },
    {
      "epoch": "2026-04-08T13:48:22.641120Z",
      "apogee_km": 486.45134584157404,
      "perigee_km": 484.6401572370978,
      "latitude_deg": 1.2827140609054769e-05,
      "longitude_deg": -116.81596418702,
      "height_km": 485.2353665303202,
      "semi_major_axis_km": 6863.682751539336,
      "eccentricity": 0.00013194,
      "inclination_deg": 43.002,
      "raan_deg": 287.1142,
      "arg_perigee_deg": 275.5339,
      "mean_anomaly_deg": 84.5362,
      "mean_motion_rev_day": 15.26746593
    },
    {
      "epoch": "2026-04-09T19:38:17.549088Z",
      "apogee_km": 486.3415663075057,
      "perigee_km": 484.62703370676354,
      "latitude_deg": -2.3151380459255543e-05,
      "longitude_deg": 147.46785718007902,
      "height_km": 485.22174599046605,
      "semi_major_axis_km": 6863.621300007134,
      "eccentricity": 0.0001249,
      "inclination_deg": 43.0016,
      "raan_deg": 280.102,
      "arg_perigee_deg": 272.6339,
      "mean_anomaly_deg": 87.4369,
      "mean_motion_rev_day": 15.26767097
    },
    {
      "epoch": "2026-04-09T21:12:29.900160Z",
      "apogee_km": 486.3414223112095,
      "perigee_km": 484.62277208927026,
      "latitude_deg": -6.773052241681129e-07,
      "longitude_deg": 123.48303654191974,
      "height_km": 485.21763218496926,
      "semi_major_axis_km": 6863.61909720024,
      "eccentricity": 0.0001252,
      "inclination_deg": 43.0017,
      "raan_deg": 279.7331,
      "arg_perigee_deg": 272.7559,
      "mean_anomaly_deg": 87.3149,
      "mean_motion_rev_day": 15.26767832
    },
    {
      "epoch": "2026-04-11T20:18:43.795008Z",
      "apogee_km": 486.27383792504133,
      "perigee_km": 484.6814793242402,
      "latitude_deg": -2.5950826742336077e-05,
      "longitude_deg": 123.9214235705863,
      "height_km": 484.95045623700406,
      "semi_major_axis_km": 6863.6146586246405,
      "eccentricity": 0.000116,
      "inclination_deg": 43.0007,
      "raan_deg": 268.6639,
      "arg_perigee_deg": 292.4334,
      "mean_anomaly_deg": 67.6394,
      "mean_motion_rev_day": 15.26769313
    },
    {
      "epoch": "2026-04-13T03:42:55.895040Z",
      "apogee_km": 486.4244741286984,
      "perigee_km": 484.6999010708214,
      "latitude_deg": 5.659396350187905e-05,
      "longitude_deg": 4.200203924601782,
      "height_km": 485.2454029673908,
      "semi_major_axis_km": 6863.699187599759,
      "eccentricity": 0.00012563,
      "inclination_deg": 43.0013,
      "raan_deg": 261.2827,
      "arg_perigee_deg": 276.2313,
      "mean_anomaly_deg": 83.8396,
      "mean_motion_rev_day": 15.26741109
    },
    {
      "epoch": "2026-04-14T17:23:55.610880Z",
      "apogee_km": 486.6810614613578,
      "perigee_km": 484.51212164642675,
      "latitude_deg": -2.4652135448769704e-05,
      "longitude_deg": 148.54710660977804,
      "height_km": 485.40878401892235,
      "semi_major_axis_km": 6863.7335915538915,
      "eccentricity": 0.000158,
      "inclination_deg": 43.0021,
      "raan_deg": 252.4261,
      "arg_perigee_deg": 268.149,
      "mean_anomaly_deg": 91.918,
      "mean_motion_rev_day": 15.2672963
    },
    {
      "epoch": "2026-04-15T16:57:02.888352Z",
      "apogee_km": 486.66346498476014,
      "perigee_km": 484.4849230517784,
      "latitude_deg": -3.0996227418909604e-05,
      "longitude_deg": 148.76473171886997,
      "height_km": 485.3464544591909,
      "semi_major_axis_km": 6863.7111940182685,
      "eccentricity": 0.0001587,
      "inclination_deg": 43.0016,
      "raan_deg": 246.8913,
      "arg_perigee_deg": 270.2556,
      "mean_anomaly_deg": 89.8113,
      "mean_motion_rev_day": 15.26737103
    },
    {
      "epoch": "2026-04-16T18:04:22.372608Z",
      "apogee_km": 486.5938638409916,
      "perigee_km": 484.5169105246314,
      "latitude_deg": -2.898063404076387e-05,
      "longitude_deg": 124.99862435745936,
      "height_km": 485.2525857546526,
      "semi_major_axis_km": 6863.692387182811,
      "eccentricity": 0.0001513,
      "inclination_deg": 43.0011,
      "raan_deg": 240.9881,
      "arg_perigee_deg": 274.4078,
      "mean_anomaly_deg": 85.66,
      "mean_motion_rev_day": 15.26743378
    }
  ]
}